{"fetched_at": "2026-03-18T06:21:28.132985+00:00", "count": 374, "satellites": [ {"name": "STARLINK-1402", "tle1": "1 45685U 20035AE  26076.99625086  .00064269  00000+0  12817-2 0  9991", "tle2": "2 45685  53.0500 343.7972 0001670 205.0052 155.0874 15.46285446320635", "norad_id": 45685, "group": "starlink", "highlight": false}, {"name": "STARLINK-1404", "tle1": "1 45686U 20035AF  26076.53265246  .00029176  00000+0  97421-3 0  9993", "tle2": "2 45686  53.1613  13.2582 0001785  95.0564 265.0641 15.30829285320171", "norad_id": 45686, "group": "starlink", "highlight": false}, {"name": "STARLINK-1413", "tle1": "1 45689U 20035AJ  26076.53996754  .00000378  00000+0  24900-4 0  9997", "tle2": "2 45689  53.1620  13.1141 0001417  87.6136 272.5027 15.30183912320098", "norad_id": 45689, "group": "starlink", "highlight": false}, {"name": "STARLINK-1417", "tle1": "1 45693U 20035AN  26076.52573452  .00025048  00000+0  14112-2 0  9990", "tle2": "2 45693  53.0532  18.7796 0001740 247.8185 112.2622 15.13079565320083", "norad_id": 45693, "group": "starlink", "highlight": false}, {"name": "STARLINK-1420", "tle1": "1 45695U 20035AQ  26076.90712657  .00076419  00000+0  11002-2 0  9999", "tle2": "2 45695  53.0538 342.7180 0004809 144.2322 215.9012 15.55377018320635", "norad_id": 45695, "group": "starlink", "highlight": false}, {"name": "STARLINK-1422", "tle1": "1 45696U 20035AR  26076.54731900  .00003293  00000+0  12327-3 0  9994", "tle2": "2 45696  53.1628  13.0828 0001305  94.4516 265.6634 15.30201750320176", "norad_id": 45696, "group": "starlink", "highlight": false}, {"name": "STARLINK-1351", "tle1": "1 45697U 20035AS  26076.95511140 -.00006354  00000+0 -89226-4 0  9998", "tle2": "2 45697  53.0523 341.7699 0004782 156.5826 203.5402 15.54021735320659", "norad_id": 45697, "group": "starlink", "highlight": false}, {"name": "STARLINK-1398", "tle1": "1 45699U 20035AU  26076.95214270  .00522077  13673-3  80700-3 0  9998", "tle2": "2 45699  53.0299 256.5144 0006099 272.4766  87.5566 16.03623074321845", "norad_id": 45699, "group": "starlink", "highlight": false}, {"name": "STARLINK-1400", "tle1": "1 45700U 20035AV  26076.99876574  .00075487  00000+0  12242-2 0  9995", "tle2": "2 45700  53.0514 343.0094 0007833 129.0433 231.1274 15.52081856320637", "norad_id": 45700, "group": "starlink", "highlight": false}, {"name": "STARLINK-1403", "tle1": "1 45701U 20035AW  26077.00002315 -.00012722  00000+0 -42923-3 0  9998", "tle2": "2 45701  53.1563 357.9644 0001823  81.0286 116.1596 15.29357825  5796", "norad_id": 45701, "group": "starlink", "highlight": false}, {"name": "STARLINK-1407", "tle1": "1 45703U 20035AY  26077.00002315  .00147665  00000+0  16384-2 0  9994", "tle2": "2 45703  53.0325 275.2143 0008354 137.4873  98.1939 15.61936110  5935", "norad_id": 45703, "group": "starlink", "highlight": false}, {"name": "STARLINK-1411", "tle1": "1 45706U 20035BB  26076.87813056  .00072531  00000+0  75923-3 0  9997", "tle2": "2 45706  53.0427 301.3665 0004381 168.1082 192.0036 15.63788999321205", "norad_id": 45706, "group": "starlink", "highlight": false}, {"name": "STARLINK-1423", "tle1": "1 45710U 20035BF  26076.95379784  .00083973  00000+0  12418-2 0  9997", "tle2": "2 45710  53.0509 342.1352 0007678 144.6250 215.5271 15.54584404320638", "norad_id": 45710, "group": "starlink", "highlight": false}, {"name": "STARLINK-1433", "tle1": "1 45711U 20035BG  26076.96807127  .00086820  00000+0  11923-2 0  9990", "tle2": "2 45711  53.0505 340.9904 0007504 136.4152 223.7453 15.56582154320659", "norad_id": 45711, "group": "starlink", "highlight": false}, {"name": "STARLINK-1434", "tle1": "1 45712U 20035BH  26076.94523905  .00029857  00000+0  11005-2 0  9996", "tle2": "2 45712  53.0536 341.7692 0005212 123.2624 236.8874 15.27580598320659", "norad_id": 45712, "group": "starlink", "highlight": false}, {"name": "STARLINK-1465", "tle1": "1 45731U 20038B   26077.00002315  .00030664  00000+0  51614-3 0  9994", "tle2": "2 45731  53.0510 183.2422 0004500 317.0722 273.3002 15.51469501  5963", "norad_id": 45731, "group": "starlink", "highlight": false}, {"name": "STARLINK-1471", "tle1": "1 45735U 20038F   26076.77525777  .00018315  00000+0  33635-3 0  9995", "tle2": "2 45735  53.0453 103.2730 0001060 335.9542  24.1416 15.49326754318781", "norad_id": 45735, "group": "starlink", "highlight": false}, {"name": "STARLINK-1480", "tle1": "1 45741U 20038M   26076.54319924  .00053418  00000+0  99918-3 0  9991", "tle2": "2 45741  53.0520 179.6866 0005493 201.9833 158.0940 15.48207115317695", "norad_id": 45741, "group": "starlink", "highlight": false}]}